satname,norad_id,inclination_deg,eccentricity,mean_motion_rev_per_day,perigee_km,apogee_km,l1,l2
STARLINK-1316,45415,53.1551,0.0005465,15.39160837,444.858709646458,452.3203217281043,1 45415U 20019BH  26162.91553615  .00045310  00000+0  11528-2 0  9994,2 45415  53.1551  48.6894 0005465  96.2542 263.9086 15.39160837344466
STARLINK-1286,45417,53.0461,0.0001555,15.64555806,373.46651950422165,375.56659476049026,1 45417U 20019BK  26162.89091577  .00051247  00000+0  52362-3 0  9995,2 45417  53.0461  34.5095 0001555 225.3308 134.7580 15.64555806344898
STARLINK-1308,45419,53.0463,0.0007237,15.66206478,364.8877127310634,374.6546350219314,1 45419U 20019BM  26162.91316576  .00047506  00000+0  45463-3 0  9996,2 45419  53.0463  53.7553 0007237  60.3368 299.8366 15.66206478344378
STARLINK-1329,45531,53.0429,0.0002178,15.73797301,346.59081566513396,349.5207452402992,1 45531U 20025A   26162.75786081  .00069257  00000+0  48125-3 0  9997,2 45531  53.0429 338.0203 0002178 168.6500 191.4568 15.73797301340202
STARLINK-1338,45532,53.0446,0.0002479,15.68271877,362.17391509856407,365.51658989935186,1 45532U 20025B   26162.73277571  .00052472  00000+0  46161-3 0  9994,2 45532  53.0446 344.9458 0002479 114.2886 245.8389 15.68271877340101
STARLINK-1350,45535,53.0737,0.0001268,15.38317924,450.21712151751854,451.94901172641494,1 45535U 20025E   26162.73594314  .00011006  00000+0  29697-3 0  9997,2 45535  53.0737 310.6934 0001268  81.5817 278.5330 15.38317924340628
STARLINK-1362,45538,53.1564,0.0004196,15.37716105,449.99850565815086,455.73108236368535,1 45538U 20025H   26162.89631132 -.00128815  00000+0 -34738-2 0  9997,2 45538  53.1564  21.1871 0004196 180.4688 179.6313 15.37716105339636
STARLINK-1368,45540,53.1574,0.0003651,15.37814966,450.07813744497616,455.06592117818036,1 45540U 20025K   26162.90920750  .00048321  00000+0  12835-2 0  9994,2 45540  53.1574  21.4920 0003651 151.8222 208.2980 15.37814966339621
STARLINK-1371,45542,53.044,0.0003337,15.62983606,376.7892414362623,381.29898411092836,1 45542U 20025M   26162.78190910  .00095989  00000+0  10323-2 0  9991,2 45542  53.0440 354.5420 0003337 163.4247 196.6876 15.62983606339974
STARLINK-1372,45543,53.158,0.0002913,15.38305367,449.13086800312976,453.1095932656981,1 45543U 20025N   26162.86654448  .00046329  00000+0  12120-2 0  9993,2 45543  53.1580  21.1778 0002913 138.2436 221.8791 15.38305367338727
STARLINK-1373,45544,53.0457,0.0002326,15.70243145,356.6346528543554,359.7683975362761,1 45544U 20025P   26162.81022834  .00058304  00000+0  47209-3 0  9990,2 45544  53.0457 349.7503 0002326  78.5122 281.6156 15.70243145340049
STARLINK-1327,45555,53.042,0.0003571,15.67600137,363.36289189408126,368.1793910887336,1 45555U 20025AA  26162.73158987  .00049529  00000+0  44818-3 0  9994,2 45555  53.0420 327.3734 0003571  79.6857 280.4561 15.67600137340343
STARLINK-1356,45564,53.0425,8.07e-05,15.65469874,371.34301968056934,372.43247367468393,1 45564U 20025AK  26162.69459921  .00034050  00000+0  33804-3 0  9997,2 45564  53.0425 340.7677 0000807 317.2451  42.8501 15.65469874340155
STARLINK-1357,45565,53.0453,0.0004146,15.69926344,356.3144661360784,361.9009894643714,1 45565U 20025AL  26162.65309817  .00058725  00000+0  48161-3 0  9999,2 45565  53.0453 297.5836 0004146 126.5631 233.5768 15.69926344340769
STARLINK-1361,45567,53.0432,0.0002559,15.63421087,376.0546713075664,379.51235142528367,1 45567U 20025AN  26162.88767972  .00094628  00000+0  10007-2 0  9995,2 45567  53.0432 338.1851 0002559 288.8611  71.2125 15.63421087340215
STARLINK-1376,45570,53.1573,0.0003421,15.38641016,447.79106014601257,452.4629583811502,1 45570U 20025AR  26162.77761188  .00052878  00000+0  13656-2 0  9994,2 45570  53.1573 357.9876 0003421 127.0374 233.0944 15.38641016339944
STARLINK-1320,45572,53.0419,0.0009086,15.88045045,301.68952412243107,313.83914402671235,1 45572U 20025AT  26163.00003472  .00189668  00000+0  66809-3 0  9995,2 45572  53.0419 234.3456 0009086 349.9673 210.2142 15.88045045  6073
STARLINK-1321,45573,53.0421,0.0001271,15.6443822,373.99660870696243,375.7132192514964,1 45573U 20025AU  26162.70274937  .00103730  00000+0  10523-2 0  9995,2 45573  53.0421 322.9567 0001271 220.0533 140.0387 15.64438220340107
STARLINK-1331,45578,53.046,0.0001281,15.64158853,374.79380870357727,376.5241312310818,1 45578U 20025AZ  26162.91865397  .00097059  00000+0  99674-3 0  9990,2 45578  53.0460 328.8125 0001281 121.3681 238.7458 15.64158853340350
STARLINK-1333,45580,53.1571,0.0001727,15.35617854,457.90512552662676,460.266702321097,1 45580U 20025BB  26162.76776926  .00045321  00000+0  12933-2 0  9992,2 45580  53.1571 359.6281 0001727 162.4790 197.6273 15.35617854339922
STARLINK-1335,45581,53.1556,0.0003772,15.37378275,451.2884415021599,456.4425041676659,1 45581U 20025BC  26162.85826863  .00050512  00000+0  13599-2 0  9996,2 45581  53.1556 355.8808 0003772 144.7138 215.4116 15.37378275339973
STARLINK-1337,45582,53.0449,0.0003383,15.75103644,342.062053834411,346.61047924655213,1 45582U 20025BD  26162.94197160  .00078379  00000+0  51358-3 0  9995,2 45582  53.0449 317.7270 0003383 106.9780 253.1609 15.75103644340498
STARLINK-1347,45586,53.0385,0.0001286,15.69012997,360.85529866595334,362.58879041220916,1 45586U 20025BH  26162.62874849  .00058552  00000+0  49880-3 0  9998,2 45586  53.0385 289.9300 0001286 132.3397 227.7728 15.69012997340854
STARLINK-1364,45589,53.043,6.6e-05,15.69787356,359.06071185026576,359.9500806465694,1 45589U 20025BL  26162.76188985  .00055836  00000+0  46110-3 0  9990,2 45589  53.0430 325.9535 0000660 310.0134  50.0825 15.69787356340367
STARLINK-1365,45590,53.0467,0.0002061,15.59747076,386.9938942806057,389.78305608147457,1 45590U 20025BM  26162.78200085  .00075568  00000+0  92446-3 0  9997,2 45590  53.0467   0.2884 0002061 119.7725 240.3493 15.59747076339903
STARLINK-1443,45660,53.136,0.0002094,15.32873237,465.81144469142964,468.6782906176022,1 45660U 20035D   26162.77073312  .00041148  00000+0  12825-2 0  9995,2 45660  53.1360 348.3992 0002094  96.1957 263.9283 15.32873237333150
STARLINK-1446,45663,53.0222,0.0001526,15.47875844,421.903214995863,423.9789040196247,1 45663U 20035G   26162.53360003  .00033331  00000+0  63569-3 0  9995,2 45663  53.0222 272.0556 0001526 212.4523 147.6390 15.47875844334182
STARLINK-1448,45665,53.0435,0.0003995,15.68714135,359.8851266916745,365.2709580105138,1 45665U 20035J   26162.91977064  .00055676  00000+0  48043-3 0  9996,2 45665  53.0435 312.5660 0003995 103.2832 256.8630 15.68714135333646
STARLINK-1451,45668,53.0528,0.000185,15.14426343,521.4440246601216,523.9973420029546,1 45668U 20035M   26162.85463112  .00024105  00000+0  13087-2 0  9998,2 45668  53.0528 359.4384 0001850 127.0513 233.0649 15.14426343332999
STARLINK-1452,45669,53.0255,0.0004683,15.59623791,385.5761260774734,391.9139878120077,1 45669U 20035N   26162.63257059  .00094729  00000+0  11595-2 0  9997,2 45669  53.0255 289.3441 0004683 323.3962  36.6729 15.59623791333956
STARLINK-1453,45670,53.0395,0.0001703,15.69438882,359.35510770159726,361.65028838274975,1 45670U 20035P   26162.88606742  .00061965  00000+0  51820-3 0  9995,2 45670  53.0395 273.0022 0001703 320.8836  39.2057 15.69438882334095
STARLINK-1454,45671,53.0432,0.0002251,15.67125898,365.61326059159546,368.6499805245712,1 45671U 20035Q   26162.67331795  .00053907  00000+0  49660-3 0  9992,2 45671  53.0432 315.0532 0002251  37.5318 322.5854 15.67125898333581
STARLINK-1456,45673,53.043,0.000334,15.65995278,368.1238665769024,372.6318745104254,1 45673U 20035S   26162.70751573  .00049833  00000+0  48101-3 0  9990,2 45673  53.0430 309.4965 0003340 172.1622 187.9446 15.65995278333688
STARLINK-1458,45675,53.0467,0.0001033,15.57808228,393.3021606672155,394.70128452730387,1 45675U 20035U   26162.62358067  .00095963  00000+0  12581-2 0  9991,2 45675  53.0467 324.7436 0001033  38.9163 321.1923 15.57808228333422
STARLINK-1460,45676,53.1566,0.0002331,15.35443158,458.0106327363492,461.1983878284418,1 45676U 20035V   26162.74385444  .00047713  00000+0  13681-2 0  9996,2 45676  53.1566 346.9335 0002331 187.0589 173.0381 15.35443158333131
STARLINK-1392,45677,53.1538,0.0001764,15.38757749,448.5772235788845,450.9861132851074,1 45677U 20035W   26162.81839274  .00046545  00000+0  11998-2 0  9991,2 45677  53.1538 345.1275 0001764 208.2537 151.8372 15.38757749333202
STARLINK-1394,45679,53.0411,0.0003601,15.65645423,368.95266779078065,373.8136722172176,1 45679U 20035Y   26162.64756189  .00047087  00000+0  46132-3 0  9998,2 45679  53.0411 300.0824 0003601 187.3127 172.7836 15.65645423333805
STARLINK-1402,45685,53.0405,0.0003929,15.58328748,389.8334176464068,395.15377917063597,1 45685U 20035AE  26162.60843168  .00096542  00000+0  12408-2 0  9993,2 45685  53.0405 291.3017 0003929 220.8885 139.1832 15.58328748333935
STARLINK-1404,45686,53.1575,0.0003048,15.45114015,428.9676441425563,433.1185203206851,1 45686U 20035AF  26162.73119877  .00061838  00000+0  12844-2 0  9995,2 45686  53.1575 327.0060 0003048 212.1983 147.8838 15.45114015333450
STARLINK-1413,45689,53.158,0.0001357,15.35384037,458.85213171934083,460.7079424031981,1 45689U 20035AJ  26162.78292209  .00046099  00000+0  13251-2 0  9999,2 45689  53.1580 331.3996 0001357 224.5898 135.4996 15.35384037333313
STARLINK-1417,45693,53.0512,0.0004744,15.17059755,511.46241908740467,518.0023735706418,1 45693U 20035AN  26162.81489497  .00026902  00000+0  13531-2 0  9997,2 45693  53.0512 346.2084 0004744 150.1938 209.9327 15.17059755333161
STARLINK-1420,45695,53.0449,0.0002651,15.68630322,361.0311203725578,364.60517479180635,1 45695U 20035AQ  26162.59061764  .00054933  00000+0  47585-3 0  9999,2 45695  53.0449 283.4617 0002651 132.0105 228.1137 15.68630322334036
STARLINK-1422,45696,53.1573,0.0001749,15.3539245,458.55911134958296,460.95100599170655,1 45696U 20035AR  26162.78631286  .00043936  00000+0  12634-2 0  9990,2 45696  53.1573 331.3381 0001749 207.6212 152.4698 15.35392450333392
